{"type":"FeatureCollection","features":[{"type":"Feature","id":"Kufiri_village.1","geometry":{"type":"MultiPolygon","coordinates":[[[[21.14821556,42.37605895],[21.148298,42.37602926],[21.14847178,42.37599159],[21.14861727,42.37596753],[21.14881652,42.37593897],[21.14900117,42.37592844],[21.14904624,42.37591495],[21.14909093,42.37590231],[21.14940031,42.37581272],[21.14963994,42.37574352],[21.15032224,42.37554124],[21.15039006,42.37552586],[21.15043302,42.37551336],[21.15083309,42.37538863],[21.15111609,42.37531694],[21.15119971,42.37529625],[21.15137002,42.37526],[21.15127106,42.37506904],[21.15115571,42.37479377],[21.15113864,42.37475263],[21.15105459,42.37458666],[21.15098866,42.37442581],[21.15096025,42.37431436],[21.15095261,42.37418259],[21.15080423,42.37404043],[21.15057369,42.37395969],[21.15056365,42.37395256],[21.15047088,42.37361051],[21.15040147,42.37344223],[21.15030079,42.37325341],[21.15018533,42.37301401],[21.15007481,42.37282163],[21.15003067,42.37274051],[21.1499935,42.37267252],[21.14994084,42.37257626],[21.14984148,42.37237914],[21.1497275,42.37219106],[21.14968396,42.37211608],[21.14957284,42.37191798],[21.14953084,42.37184385],[21.14885405,42.37232154],[21.14881633,42.37234903],[21.14872974,42.37241075],[21.14869356,42.37243652],[21.14840684,42.372644],[21.14805027,42.37290402],[21.14801602,42.3729285],[21.1477976,42.37308215],[21.14768598,42.37316004],[21.1476554,42.37318652],[21.14756696,42.37328583],[21.14744549,42.37343956],[21.14747087,42.37344947],[21.14751572,42.37346449],[21.14784061,42.37358384],[21.14808758,42.37409635],[21.1481471,42.37424092],[21.14824347,42.37448206],[21.14822272,42.37451267],[21.14818794,42.37451929],[21.14800816,42.37454696],[21.14786246,42.37455837],[21.14780675,42.37455916],[21.14781507,42.3745733],[21.147836,42.37462172],[21.1478748,42.37472687],[21.14791059,42.37486232],[21.14794837,42.37502521],[21.14800761,42.37525689],[21.14804847,42.37541935],[21.14821556,42.37605895]]]]},"geometry_name":"the_geom","properties":{"id":null,"Emri":"The Village"}}],"totalFeatures":1,"numberMatched":1,"numberReturned":1,"timeStamp":"2026-08-14T19:34:38.024Z","crs":{"type":"name","properties":{"name":"urn:ogc:def:crs:EPSG::4326"}}}