{"type":"FeatureCollection","features":[{"type":"Feature","id":"Parkingu.1","geometry":{"type":"MultiPolygon","coordinates":[[[[21.14845056,42.37463108],[21.14871484,42.37455355],[21.14899704,42.37446714],[21.14893827,42.37434438],[21.14870311,42.37382835],[21.14866707,42.37374807],[21.14863297,42.37367436],[21.14854318,42.37369106],[21.14842591,42.37349683],[21.14836048,42.37337971],[21.14829146,42.37325117],[21.1478434,42.37358255],[21.14806095,42.37404157],[21.14824703,42.37448298],[21.14836703,42.37452428],[21.14845056,42.37463108]]]]},"geometry_name":"the_geom","properties":{"id":null}},{"type":"Feature","id":"Parkingu.2","geometry":{"type":"MultiPolygon","coordinates":[[[[21.15041676,42.37511105],[21.15053522,42.37507252],[21.14969546,42.37337799],[21.14955149,42.37310025],[21.14944025,42.37313541],[21.14947766,42.37322048],[21.14954423,42.37337325],[21.14961891,42.37352787],[21.15041676,42.37511105]]]]},"geometry_name":"the_geom","properties":{"id":null}},{"type":"Feature","id":"Parkingu.3","geometry":{"type":"MultiPolygon","coordinates":[[[[21.14958755,42.3730794],[21.14987303,42.37363601],[21.14992938,42.37361879],[21.14966114,42.37306043],[21.14958755,42.3730794]]]]},"geometry_name":"the_geom","properties":{"id":null}},{"type":"Feature","id":"Parkingu.4","geometry":{"type":"MultiPolygon","coordinates":[[[[21.14995301,42.37378928],[21.1503923,42.37468786],[21.15046313,42.37466827],[21.15001301,42.37377302],[21.14995301,42.37378928]]]]},"geometry_name":"the_geom","properties":{"id":null}},{"type":"Feature","id":"Parkingu.5","geometry":{"type":"MultiPolygon","coordinates":[[[[21.15048849,42.3748792],[21.15058059,42.37506131],[21.15063761,42.37504566],[21.1505459,42.37486311],[21.15048849,42.3748792]]]]},"geometry_name":"the_geom","properties":{"id":null}},{"type":"Feature","id":"Parkingu.6","geometry":{"type":"MultiPolygon","coordinates":[[[[21.14933191,42.37314448],[21.14941836,42.37334489],[21.14947654,42.37332924],[21.14943002,42.3732221],[21.14940752,42.3731641],[21.1493924,42.37312753],[21.14933191,42.37314448]]]]},"geometry_name":"the_geom","properties":{"id":null}},{"type":"Feature","id":"Parkingu.7","geometry":{"type":"MultiPolygon","coordinates":[[[[21.14915331,42.37584225],[21.15029095,42.37552259],[21.15015437,42.3752362],[21.149019,42.37554237],[21.14915331,42.37584225]]]]},"geometry_name":"the_geom","properties":{"id":null}},{"type":"Feature","id":"Parkingu.8","geometry":{"type":"MultiPolygon","coordinates":[[[[21.14892947,42.37585078],[21.14900807,42.37583181],[21.1488647,42.37552727],[21.14869147,42.37517212],[21.14812388,42.37527211],[21.14815143,42.37534496],[21.14866434,42.37524911],[21.14892947,42.37585078]]]]},"geometry_name":"the_geom","properties":{"id":null}},{"type":"Feature","id":"Parkingu.9","geometry":{"type":"MultiPolygon","coordinates":[[[[21.14905107,42.37445149],[21.14909114,42.37443958],[21.14911618,42.37443169],[21.14913236,42.37442681],[21.1491318,42.3744236],[21.14913199,42.3744236],[21.14876425,42.37363846],[21.14874094,42.37364492],[21.14871801,42.37365024],[21.14867486,42.37366273],[21.14904144,42.37445437],[21.14905107,42.37445149]]]]},"geometry_name":"the_geom","properties":{"id":null}}],"totalFeatures":9,"numberMatched":9,"numberReturned":9,"timeStamp":"2026-08-14T19:34:38.612Z","crs":{"type":"name","properties":{"name":"urn:ogc:def:crs:EPSG::4326"}}}